CCSDS_OMM_VERS = 2.0
CREATION_DATE  = 
ORIGINATOR     = 

OBJECT_NAME    = STARLINK-36607
OBJECT_ID      = 2026-020D
CENTER_NAME    = EARTH
REF_FRAME      = TEME
TIME_SYSTEM    = UTC
MEAN_ELEMENT_THEORY = SGP/SGP4

EPOCH          = 2026-02-06T12:00:01.999296
MEAN_MOTION    = 15.90967725
ECCENTRICITY   = .000178
INCLINATION    = 43.0000
RA_OF_ASC_NODE = 332.0795
ARG_OF_PERICENTER = 261.7152
MEAN_ANOMALY   = 313.7272

EPHEMERIS_TYPE = 0
CLASSIFICATION_TYPE = U
NORAD_CAT_ID   = 67620
ELEMENT_SET_NO = 999
REV_AT_EPOCH   = 237
BSTAR          = -.60757E-2
MEAN_MOTION_DOT = -.172657E-1
MEAN_MOTION_DDOT = 0

CCSDS_OMM_VERS = 2.0
CREATION_DATE  = 
ORIGINATOR     = 

OBJECT_NAME    = STARLINK-36615
OBJECT_ID      = 2026-020E
CENTER_NAME    = EARTH
REF_FRAME      = TEME
TIME_SYSTEM    = UTC
MEAN_ELEMENT_THEORY = SGP/SGP4

EPOCH          = 2026-02-06T12:00:01.999296
MEAN_MOTION    = 15.90806116
ECCENTRICITY   = .0001578
INCLINATION    = 43.0000
RA_OF_ASC_NODE = 332.0855
ARG_OF_PERICENTER = 262.6160
MEAN_ANOMALY   = 310.4993

EPHEMERIS_TYPE = 0
CLASSIFICATION_TYPE = U
NORAD_CAT_ID   = 67621
ELEMENT_SET_NO = 999
REV_AT_EPOCH   = 237
BSTAR          = -.61134E-2
MEAN_MOTION_DOT = -.1722975E-1
MEAN_MOTION_DDOT = 0

CCSDS_OMM_VERS = 2.0
CREATION_DATE  = 
ORIGINATOR     = 

OBJECT_NAME    = STARLINK-36614
OBJECT_ID      = 2026-020F
CENTER_NAME    = EARTH
REF_FRAME      = TEME
TIME_SYSTEM    = UTC
MEAN_ELEMENT_THEORY = SGP/SGP4

EPOCH          = 2026-02-06T12:00:01.999296
MEAN_MOTION    = 15.91086847
ECCENTRICITY   = .0001615
INCLINATION    = 43.0000
RA_OF_ASC_NODE = 332.0744
ARG_OF_PERICENTER = 257.3725
MEAN_ANOMALY   = 320.0893

EPHEMERIS_TYPE = 0
CLASSIFICATION_TYPE = U
NORAD_CAT_ID   = 67622
ELEMENT_SET_NO = 999
REV_AT_EPOCH   = 237
BSTAR          = -.60099E-2
MEAN_MOTION_DOT = -.1719447E-1
MEAN_MOTION_DDOT = 0

CCSDS_OMM_VERS = 2.0
CREATION_DATE  = 
ORIGINATOR     = 

OBJECT_NAME    = STARLINK-36600
OBJECT_ID      = 2026-020G
CENTER_NAME    = EARTH
REF_FRAME      = TEME
TIME_SYSTEM    = UTC
MEAN_ELEMENT_THEORY = SGP/SGP4

EPOCH          = 2026-02-06T12:00:01.999296
MEAN_MOTION    = 15.91246713
ECCENTRICITY   = .000165
INCLINATION    = 43.0001
RA_OF_ASC_NODE = 332.0686
ARG_OF_PERICENTER = 260.5632
MEAN_ANOMALY   = 319.2826

EPHEMERIS_TYPE = 0
CLASSIFICATION_TYPE = U
NORAD_CAT_ID   = 67623
ELEMENT_SET_NO = 999
REV_AT_EPOCH   = 237
BSTAR          = -.59472E-2
MEAN_MOTION_DOT = -.1954561E-1
MEAN_MOTION_DDOT = .10272E-2

CCSDS_OMM_VERS = 2.0
CREATION_DATE  = 
ORIGINATOR     = 

OBJECT_NAME    = STARLINK-36439
OBJECT_ID      = 2026-020H
CENTER_NAME    = EARTH
REF_FRAME      = TEME
TIME_SYSTEM    = UTC
MEAN_ELEMENT_THEORY = SGP/SGP4

EPOCH          = 2026-02-06T12:00:01.999296
MEAN_MOTION    = 15.91407571
ECCENTRICITY   = .0001616
INCLINATION    = 43.0000
RA_OF_ASC_NODE = 332.0625
ARG_OF_PERICENTER = 259.3721
MEAN_ANOMALY   = 322.8563

EPHEMERIS_TYPE = 0
CLASSIFICATION_TYPE = U
NORAD_CAT_ID   = 67624
ELEMENT_SET_NO = 999
REV_AT_EPOCH   = 237
BSTAR          = -.58923E-2
MEAN_MOTION_DOT = -.1952689E-1
MEAN_MOTION_DDOT = .1027E-2

CCSDS_OMM_VERS = 2.0
CREATION_DATE  = 
ORIGINATOR     = 

OBJECT_NAME    = STARLINK-36438
OBJECT_ID      = 2026-020J
CENTER_NAME    = EARTH
REF_FRAME      = TEME
TIME_SYSTEM    = UTC
MEAN_ELEMENT_THEORY = SGP/SGP4

EPOCH          = 2026-02-06T12:00:01.999296
MEAN_MOTION    = 15.91563694
ECCENTRICITY   = .0001621
INCLINATION    = 43.0002
RA_OF_ASC_NODE = 332.0566
ARG_OF_PERICENTER = 258.2265
MEAN_ANOMALY   = 326.3327

EPHEMERIS_TYPE = 0
CLASSIFICATION_TYPE = U
NORAD_CAT_ID   = 67625
ELEMENT_SET_NO = 999
REV_AT_EPOCH   = 237
BSTAR          = -.58343E-2
MEAN_MOTION_DOT = -.1949178E-1
MEAN_MOTION_DDOT = .10251E-2

CCSDS_OMM_VERS = 2.0
CREATION_DATE  = 
ORIGINATOR     = 

OBJECT_NAME    = STARLINK-36436
OBJECT_ID      = 2026-020K
CENTER_NAME    = EARTH
REF_FRAME      = TEME
TIME_SYSTEM    = UTC
MEAN_ELEMENT_THEORY = SGP/SGP4

EPOCH          = 2026-02-06T12:00:01.999296
MEAN_MOTION    = 15.91881689
ECCENTRICITY   = .0001783
INCLINATION    = 43.0001
RA_OF_ASC_NODE = 332.0448
ARG_OF_PERICENTER = 264.4608
MEAN_ANOMALY   = 324.7976

EPHEMERIS_TYPE = 0
CLASSIFICATION_TYPE = U
NORAD_CAT_ID   = 67626
ELEMENT_SET_NO = 999
REV_AT_EPOCH   = 237
BSTAR          = -.57183E-2
MEAN_MOTION_DOT = -.1942328E-1
MEAN_MOTION_DDOT = .10216E-2

CCSDS_OMM_VERS = 2.0
CREATION_DATE  = 
ORIGINATOR     = 

OBJECT_NAME    = STARLINK-36502
OBJECT_ID      = 2026-020L
CENTER_NAME    = EARTH
REF_FRAME      = TEME
TIME_SYSTEM    = UTC
MEAN_ELEMENT_THEORY = SGP/SGP4

EPOCH          = 2026-02-06T12:00:01.999296
MEAN_MOTION    = 15.91713169
ECCENTRICITY   = .0001647
INCLINATION    = 43.0003
RA_OF_ASC_NODE = 332.0511
ARG_OF_PERICENTER = 261.3844
MEAN_ANOMALY   = 325.3869

EPHEMERIS_TYPE = 0
CLASSIFICATION_TYPE = U
NORAD_CAT_ID   = 67627
ELEMENT_SET_NO = 999
REV_AT_EPOCH   = 237
BSTAR          = -.57873E-2
MEAN_MOTION_DOT = -.1948541E-1
MEAN_MOTION_DDOT = .1026E-2

CCSDS_OMM_VERS = 2.0
CREATION_DATE  = 
ORIGINATOR     = 

OBJECT_NAME    = STARLINK-36532
OBJECT_ID      = 2026-020M
CENTER_NAME    = EARTH
REF_FRAME      = TEME
TIME_SYSTEM    = UTC
MEAN_ELEMENT_THEORY = SGP/SGP4

EPOCH          = 2026-02-06T12:00:01.999296
MEAN_MOTION    = 15.92127630
ECCENTRICITY   = .000182
INCLINATION    = 43.0001
RA_OF_ASC_NODE = 332.0340
ARG_OF_PERICENTER = 263.2446
MEAN_ANOMALY   = 330.2664

EPHEMERIS_TYPE = 0
CLASSIFICATION_TYPE = U
NORAD_CAT_ID   = 67628
ELEMENT_SET_NO = 999
REV_AT_EPOCH   = 237
BSTAR          = -.55049E-2
MEAN_MOTION_DOT = -.1894564E-1
MEAN_MOTION_DDOT = .9777E-3

CCSDS_OMM_VERS = 2.0
CREATION_DATE  = 
ORIGINATOR     = 

OBJECT_NAME    = STARLINK-36367
OBJECT_ID      = 2026-020N
CENTER_NAME    = EARTH
REF_FRAME      = TEME
TIME_SYSTEM    = UTC
MEAN_ELEMENT_THEORY = SGP/SGP4

EPOCH          = 2026-02-06T12:00:01.999296
MEAN_MOTION    = 15.92051837
ECCENTRICITY   = .0001666
INCLINATION    = 43.0001
RA_OF_ASC_NODE = 332.0382
ARG_OF_PERICENTER = 260.6305
MEAN_ANOMALY   = 331.1296

EPHEMERIS_TYPE = 0
CLASSIFICATION_TYPE = U
NORAD_CAT_ID   = 67629
ELEMENT_SET_NO = 999
REV_AT_EPOCH   = 237
BSTAR          = -.56493E-2
MEAN_MOTION_DOT = -.1935987E-1
MEAN_MOTION_DDOT = .10171E-2

CCSDS_OMM_VERS = 2.0
CREATION_DATE  = 
ORIGINATOR     = 

OBJECT_NAME    = STARLINK-36416
OBJECT_ID      = 2026-020P
CENTER_NAME    = EARTH
REF_FRAME      = TEME
TIME_SYSTEM    = UTC
MEAN_ELEMENT_THEORY = SGP/SGP4

EPOCH          = 2026-02-06T12:00:01.999296
MEAN_MOTION    = 15.92259659
ECCENTRICITY   = .0001627
INCLINATION    = 43.0001
RA_OF_ASC_NODE = 332.0298
ARG_OF_PERICENTER = 260.1553
MEAN_ANOMALY   = 335.0527

EPHEMERIS_TYPE = 0
CLASSIFICATION_TYPE = U
NORAD_CAT_ID   = 67630
ELEMENT_SET_NO = 999
REV_AT_EPOCH   = 237
BSTAR          = -.55476E-2
MEAN_MOTION_DOT = -.1922029E-1
MEAN_MOTION_DDOT = .10056E-2

CCSDS_OMM_VERS = 2.0
CREATION_DATE  = 
ORIGINATOR     = 

OBJECT_NAME    = STARLINK-36527
OBJECT_ID      = 2026-020Q
CENTER_NAME    = EARTH
REF_FRAME      = TEME
TIME_SYSTEM    = UTC
MEAN_ELEMENT_THEORY = SGP/SGP4

EPOCH          = 2026-02-06T12:00:01.999296
MEAN_MOTION    = 15.92389255
ECCENTRICITY   = .0001722
INCLINATION    = 43.0002
RA_OF_ASC_NODE = 332.0248
ARG_OF_PERICENTER = 263.3427
MEAN_ANOMALY   = 333.8862

EPHEMERIS_TYPE = 0
CLASSIFICATION_TYPE = U
NORAD_CAT_ID   = 67631
ELEMENT_SET_NO = 999
REV_AT_EPOCH   = 237
BSTAR          = -.55026E-2
MEAN_MOTION_DOT = -.1919441E-1
MEAN_MOTION_DDOT = .10043E-2

