STARLINK-36607          
1 67620U 26020D   26037.50002314 -.01726570  00000+0 -60757-2 0  9990
2 67620  43.0000 332.0795 0001780 261.7152 313.7272 15.90967725  2377
STARLINK-36615          
1 67621U 26020E   26037.50002314 -.01722975  00000+0 -61134-2 0  9996
2 67621  43.0000 332.0855 0001578 262.6160 310.4993 15.90806116  2379
STARLINK-36614          
1 67622U 26020F   26037.50002314 -.01719447  00000+0 -60099-2 0  9996
2 67622  43.0000 332.0744 0001615 257.3725 320.0893 15.91086847  2375
STARLINK-36600          
1 67623U 26020G   26037.50002314 -.01954561  10272-2 -59472-2 0  9993
2 67623  43.0001 332.0686 0001650 260.5632 319.2826 15.91246713  2370
STARLINK-36439          
1 67624U 26020H   26037.50002314 -.01952689  10270-2 -58923-2 0  9991
2 67624  43.0000 332.0625 0001616 259.3721 322.8563 15.91407571  2379
STARLINK-36438          
1 67625U 26020J   26037.50002314 -.01949178  10251-2 -58343-2 0  9996
2 67625  43.0002 332.0566 0001621 258.2265 326.3327 15.91563694  2379
STARLINK-36436          
1 67626U 26020K   26037.50002314 -.01942328  10216-2 -57183-2 0  9999
2 67626  43.0001 332.0448 0001783 264.4608 324.7976 15.91881689  2376
STARLINK-36502          
1 67627U 26020L   26037.50002314 -.01948541  10260-2 -57873-2 0  9998
2 67627  43.0003 332.0511 0001647 261.3844 325.3869 15.91713169  2372
STARLINK-36532          
1 67628U 26020M   26037.50002314 -.01894564  97770-3 -55049-2 0  9999
2 67628  43.0001 332.0340 0001820 263.2446 330.2664 15.92127630  2374
STARLINK-36367          
1 67629U 26020N   26037.50002314 -.01935987  10171-2 -56493-2 0  9998
2 67629  43.0001 332.0382 0001666 260.6305 331.1296 15.92051837  2370
STARLINK-36416          
1 67630U 26020P   26037.50002314 -.01922029  10056-2 -55476-2 0  9995
2 67630  43.0001 332.0298 0001627 260.1553 335.0527 15.92259659  2377
STARLINK-36527          
1 67631U 26020Q   26037.50002314 -.01919441  10043-2 -55026-2 0  9997
2 67631  43.0002 332.0248 0001722 263.3427 333.8862 15.92389255  2379
